NORAD_CAT_ID,OBJECT_NAME,OBJECT_TYPE,EPOCH,MEAN_MOTION,ECCENTRICITY,INCLINATION,RA_OF_ASC_NODE,ARG_OF_PERICENTER,MEAN_ANOMALY,BSTAR,MEAN_MOTION_DOT,MEAN_MOTION_DDOT,TLE_LINE0,TLE_LINE1,TLE_LINE2,SEMIMAJOR_AXIS,PERIOD,APOGEE,PERIGEE,DECAYED
55785.0,STARLINK-5818,PAYLOAD,2024-01-02 10:49:05,14.98333325,0.0002868,69.9998,54.7383,272.82,87.2631,8.1285e-05,8.77e-06,0.0,0 STARLINK-5818,1 55785U 23028AW  24002.45075506  .00000877  00000-0  81285-4 0  9995,2 55785  69.9998  54.7383 0002868 272.8200  87.2631 14.98333325 47590,6950.183,96.107,574.041,570.054,0.0
55785.0,STARLINK-5818,PAYLOAD,2024-01-02 12:25:12,14.98345214,0.0002993,69.9995,54.57,275.4934,84.5884,-8.4108e-05,-1.097e-05,0.0,0 STARLINK-5818,1 55785U 23028AW  24002.51751147 -.00001097  00000-0 -84108-4 0  9998,2 55785  69.9995  54.5700 0002993 275.4934  84.5884 14.98345214 47613,6950.146,96.106,574.091,569.931,0.0
55785.0,STARLINK-5818,PAYLOAD,2024-01-03 10:51:06,14.98323501,0.0002531,70.0004,52.2144,249.0469,111.042,-4.5348e-05,-6.34e-06,0.0,0 STARLINK-5818,1 55785U 23028AW  24003.45216352 -.00000634  00000-0 -45348-4 0  9995,2 55785  70.0004  52.2144 0002531 249.0469 111.0420 14.98323501 47743,6950.213,96.107,573.837,570.319,0.0
55785.0,STARLINK-5818,PAYLOAD,2024-01-03 12:27:15,14.98322639,0.0002643,70.0004,52.0461,258.4032,101.6831,-4.3387e-05,-6.1e-06,0.0,0 STARLINK-5818,1 55785U 23028AW  24003.51892447 -.00000610  00000-0 -43387-4 0  9992,2 55785  70.0004  52.0461 0002643 258.4032 101.6831 14.98322639 47761,6950.216,96.107,573.918,570.244,0.0
55785.0,STARLINK-5818,PAYLOAD,2024-01-04 04:28:35,14.98330594,0.0002944,70.0,50.3628,267.4097,92.6725,-3.7454e-05,-5.4e-06,0.0,0 STARLINK-5818,1 55785U 23028AW  24004.18651995 -.00000540  00000-0 -37454-4 0  9997,2 55785  70.0000  50.3628 0002944 267.4097  92.6725 14.98330594 47858,6950.191,96.107,574.102,570.01,0.0
55785.0,STARLINK-5818,PAYLOAD,2024-01-04 12:29:15,14.98333536,0.0002845,70.0,49.5209,264.7756,95.3078,-5.1857e-06,-1.55e-06,0.0,0 STARLINK-5818,1 55785U 23028AW  24004.52031662 -.00000155  00000-0 -51857-5 0  9994,2 55785  70.0000  49.5209 0002845 264.7756  95.3078 14.98333536 47912,6950.182,96.107,574.024,570.07,0.0
55785.0,STARLINK-5818,PAYLOAD,2024-01-05 04:30:36,14.98327289,0.0002863,69.9999,47.8379,262.2551,97.8283,4.1963e-05,4.08e-06,0.0,0 STARLINK-5818,1 55785U 23028AW  24005.18791850  .00000408  00000-0  41963-4 0  9994,2 55785  69.9999  47.8379 0002863 262.2551  97.8283 14.98327289 48005,6950.201,96.107,574.056,570.076,0.0
55785.0,STARLINK-5818,PAYLOAD,2024-01-05 12:31:16,14.98327228,0.0002854,69.9999,46.9961,262.5187,97.5648,3.8337e-05,3.64e-06,0.0,0 STARLINK-5818,1 55785U 23028AW  24005.52171906  .00000364  00000-0  38337-4 0  9998,2 55785  69.9999  46.9961 0002854 262.5187  97.5648 14.98327228 48061,6950.201,96.107,574.05,570.083,0.0
55785.0,STARLINK-5818,PAYLOAD,2024-01-06 04:32:36,14.98333163,0.0002883,69.9997,45.3117,270.8939,89.1889,1.7873e-05,1.2e-06,0.0,0 STARLINK-5818,1 55785U 23028AW  24006.18931610  .00000120  00000-0  17873-4 0  9999,2 55785  69.9997  45.3117 0002883 270.8939  89.1889 14.98333163 48153,6950.183,96.107,574.052,570.044,0.0
55785.0,STARLINK-5818,PAYLOAD,2024-01-06 12:33:17,14.98334305,0.0002871,69.9997,44.4701,270.1595,89.9235,3.0047e-05,2.66e-06,0.0,0 STARLINK-5818,1 55785U 23028AW  24006.52311420  .00000266  00000-0  30047-4 0  9997,2 55785  69.9997  44.4701 0002871 270.1595  89.9235 14.98334305 48219,6950.18,96.107,574.04,570.049,0.0
55785.0,STARLINK-5818,PAYLOAD,2024-01-07 10:59:10,14.98324042,0.0002791,69.9999,42.113,271.8645,88.2194,0.00010925,1.211e-05,0.0,0 STARLINK-5818,1 55785U 23028AW  24007.45775742  .00001211  00000-0  10925-3 0  9994,2 55785  69.9999  42.1130 0002791 271.8645  88.2194 14.98324042 48344,6950.211,96.107,574.016,570.137,0.0
55785.0,STARLINK-5818,PAYLOAD,2024-01-07 12:35:18,14.98331093,0.0002818,69.9998,41.9449,270.2703,89.8133,1.5338e-05,9e-07,0.0,0 STARLINK-5818,1 55785U 23028AW  24007.52451523  .00000090  00000-0  15338-4 0  9998,2 55785  69.9998  41.9449 0002818 270.2703  89.8133 14.98331093 48367,6950.19,96.107,574.013,570.096,0.0
55785.0,STARLINK-5818,PAYLOAD,2024-01-08 11:01:10,14.98331866,0.0002746,69.9998,39.5884,265.9378,94.1468,-4.4547e-06,-1.46e-06,0.0,0 STARLINK-5818,1 55785U 23028AW  24008.45915378 -.00000146  00000-0 -44547-5 0  9993,2 55785  69.9998  39.5884 0002746 265.9378  94.1468 14.98331866 48494,6950.187,96.107,573.961,570.144,0.0
55785.0,STARLINK-5818,PAYLOAD,2024-01-09 11:03:12,14.98327882,0.000274,69.9999,37.0636,263.8001,96.2846,-1.7469e-05,-3.01e-06,0.0,0 STARLINK-5818,1 55785U 23028AW  24009.46055605 -.00000301  00000-0 -17469-4 0  9998,2 55785  69.9999  37.0636 0002740 263.8001  96.2846 14.98327882 48640,6950.199,96.107,573.969,570.16,0.0
55785.0,STARLINK-5818,PAYLOAD,2024-01-10 11:05:12,14.98329445,0.0002705,70.0001,34.5388,260.444,99.6413,6.2277e-06,-1.9e-07,0.0,0 STARLINK-5818,1 55785U 23028AW  24010.46195466 -.00000019  00000-0  62277-5 0  9993,2 55785  70.0001  34.5388 0002705 260.4440  99.6413 14.98329445 48794,6950.195,96.107,573.94,570.18,0.0
55785.0,STARLINK-5818,PAYLOAD,2024-01-11 11:07:13,14.98332249,0.0002758,70.0,32.014,263.6225,96.462,5.7487e-05,5.93e-06,0.0,0 STARLINK-5818,1 55785U 23028AW  24011.46335065  .00000593  00000-0  57487-4 0  9997,2 55785  70.0000  32.0140 0002758 263.6225  96.4620 14.98332249 48944,6950.186,96.107,573.968,570.134,0.0
55785.0,STARLINK-5818,PAYLOAD,2024-01-12 03:08:34,14.98327804,0.0002677,70.0003,30.3312,261.6936,98.392,-1.5702e-05,-2.8e-06,0.0,0 STARLINK-5818,1 55785U 23028AW  24012.13095535 -.00000280  00000-0 -15702-4 0  9996,2 55785  70.0003  30.3312 0002677 261.6936  98.3920 14.98327804 49043,6950.2,96.107,573.925,570.204,0.0
55785.0,STARLINK-5818,PAYLOAD,2024-01-12 11:09:15,14.98325973,0.0002717,70.0003,29.4894,263.7161,96.3689,-3.7026e-05,-5.35e-06,0.0,0 STARLINK-5818,1 55785U 23028AW  24012.46475767 -.00000535  00000-0 -37026-4 0  9997,2 55785  70.0003  29.4894 0002717 263.7161  96.3689 14.98325973 49107,6950.205,96.107,573.959,570.182,0.0
55785.0,STARLINK-5818,PAYLOAD,2024-01-13 03:10:35,14.98331776,0.0002764,70.0003,27.8055,267.2382,92.846,-3.1261e-05,-4.66e-06,0.0,0 STARLINK-5818,1 55785U 23028AW  24013.13235421 -.00000466  00000-0 -31261-4 0  9991,2 55785  70.0003  27.8055 0002764 267.2382  92.8460 14.98331776 49199,6950.187,96.107,573.973,570.131,0.0
55785.0,STARLINK-5818,PAYLOAD,2024-01-13 11:11:15,14.98331887,0.0002762,70.0003,26.9639,267.5034,92.5809,-2.4826e-05,-3.89e-06,0.0,0 STARLINK-5818,1 55785U 23028AW  24013.46615367 -.00000389  00000-0 -24826-4 0  9991,2 55785  70.0003  26.9639 0002762 267.5034  92.5809 14.98331887 49256,6950.187,96.107,573.972,570.132,0.0
55785.0,STARLINK-5818,PAYLOAD,2024-01-14 03:12:36,14.98326608,0.0002803,70.0003,25.28,268.4861,91.5977,2.57e-05,2.14e-06,0.0,0 STARLINK-5818,1 55785U 23028AW  24014.13375552  .00000214  00000-0  25700-4 0  9992,2 55785  70.0003  25.2800 0002803 268.4861  91.5977 14.98326608 49342,6950.203,96.107,574.017,570.12,0.0
55785.0,STARLINK-5818,PAYLOAD,2024-01-14 09:37:08,14.98328496,0.0002762,70.0004,24.6067,268.7819,91.3024,4.7299e-05,4.71e-06,0.0,0 STARLINK-5818,1 55785U 23028AW  24014.40079413  .00000471  00000-0  47299-4 0  9991,2 55785  70.0004  24.6067 0002762 268.7819  91.3024 14.98328496 49394,6950.198,96.107,573.982,570.143,0.0
55785.0,STARLINK-5818,PAYLOAD,2024-01-15 03:14:37,14.98331049,0.0002765,70.0004,22.7551,263.5601,96.5243,9.937e-06,2.6e-07,0.0,0 STARLINK-5818,1 55785U 23028AW  24015.13515276  .00000026  00000-0  99370-5 0  9998,2 55785  70.0004  22.7551 0002765 263.5601  96.5243 14.98331049 49495,6950.19,96.107,573.976,570.133,0.0
55785.0,STARLINK-5818,PAYLOAD,2024-01-15 09:39:09,14.98332909,0.0002737,70.0005,22.0818,263.5802,96.5046,3.1616e-05,2.84e-06,0.0,0 STARLINK-5818,1 55785U 23028AW  24015.40219062  .00000284  00000-0  31616-4 0  9996,2 55785  70.0005  22.0818 0002737 263.5802  96.5046 14.98332909 49540,6950.184,96.107,573.951,570.147,0.0
55785.0,STARLINK-5818,PAYLOAD,2024-01-16 09:41:10,14.98324109,0.0002612,70.0009,19.5574,259.216,100.8705,-4.3666e-05,-6.14e-06,0.0,0 STARLINK-5818,1 55785U 23028AW  24016.40359899 -.00000614  00000-0 -43666-4 0  9997,2 55785  70.0009  19.5574 0002612 259.2160 100.8705 14.98324109 49684,6950.211,96.107,573.892,570.261,0.0
55785.0,STARLINK-5818,PAYLOAD,2024-01-17 03:18:39,14.98332276,0.0002719,70.0006,17.7058,261.1653,98.9198,5.7914e-06,-2.4e-07,0.0,0 STARLINK-5818,1 55785U 23028AW  24017.13795240 -.00000024  00000-0  57914-5 0  9998,2 55785  70.0006  17.7058 0002719 261.1653  98.9198 14.98332276 49794,6950.186,96.107,573.941,570.161,0.0
55785.0,STARLINK-5818,PAYLOAD,2024-01-17 09:43:11,14.98334076,0.0002665,70.0008,17.0326,259.6035,100.4824,3.0488e-05,2.71e-06,0.0,0 STARLINK-5818,1 55785U 23028AW  24017.40499005  .00000271  00000-0  30488-4 0  9997,2 55785  70.0008  17.0326 0002665 259.6035 100.4824 14.98334076 49844,6950.18,96.107,573.898,570.193,0.0
55785.0,STARLINK-5818,PAYLOAD,2024-01-18 03:20:39,14.98328361,0.000266,70.0008,15.1812,259.3584,100.7275,6.6141e-05,6.96e-06,0.0,0 STARLINK-5818,1 55785U 23028AW  24018.13935179  .00000696  00000-0  66141-4 0  9991,2 55785  70.0008  15.1812 0002660 259.3584 100.7275 14.98328361 49948,6950.198,96.107,573.912,570.214,0.0
55785.0,STARLINK-5818,PAYLOAD,2024-01-18 09:45:12,14.98327514,0.00027,70.0009,14.5077,262.1088,97.9764,4.8004e-05,4.8e-06,0.0,0 STARLINK-5818,1 55785U 23028AW  24018.40639321  .00000480  00000-0  48004-4 0  9990,2 55785  70.0009  14.5077 0002700 262.1088  97.9764 14.98327514 49995,6950.201,96.107,573.942,570.189,0.0
55785.0,STARLINK-5818,PAYLOAD,2024-01-19 03:22:41,14.98327659,0.000269,70.001,12.6568,258.7601,101.3256,-8.5e-05,-1.107e-05,0.0,0 STARLINK-5818,1 55785U 23028AW  24019.14075727 -.00001107  00000-0 -85000-4 0  9992,2 55785  70.0010  12.6568 0002690 258.7601 101.3256 14.98327659 50090,6950.2,96.107,573.935,570.196,0.0
